{"type": "FeatureCollection", "features": [ {"type": "Feature", "properties": {"norad_id": 34141, "name": "COSMOS 2251 DEB", "group": "cosmos-2251-debris", "lat": -24.680279306972547, "lon": -133.9285485377147, "alt_km": 727.0452143310076, "timestamp": "2025-12-07T14:37:05.597418+00:00", "meta": {"OBJECT_NAME": "COSMOS 2251 DEB", "OBJECT_ID": "1993-036LN", "EPOCH": "2025-12-06T21:55:08.992128", "MEAN_MOTION": 14.49142928, "ECCENTRICITY": 0.00478296, "INCLINATION": 74.0113, "RA_OF_ASC_NODE": 39.8066, "ARG_OF_PERICENTER": 127.9866, "MEAN_ANOMALY": 48.6723, "EPHEMERIS_TYPE": 0, "CLASSIFICATION_TYPE": "U", "NORAD_CAT_ID": 34141, "ELEMENT_SET_NO": 999, "REV_AT_EPOCH": 87609, "BSTAR": 0.0025203004, "MEAN_MOTION_DOT": 9.713e-05, "MEAN_MOTION_DDOT": 0}, "tle": {"line1": "1 34141U 93036LN  25340.91329852  .00009713  00000+0  25203-2 0  9990", "line2": "2 34141  74.0113  39.8066 0047829 127.9866  48.6723 14.49142928876096"}}, "geometry": {"type": "Point", "coordinates": [-133.9285485377147, -24.680279306972547]}}, {"type": "Feature", "properties": {"norad_id": 34270, "name": "COSMOS 2251 DEB", "group": "cosmos-2251-debris", "lat": -45.59560708436417, "lon": 153.53654380351534, "alt_km": 698.3706025814126, "timestamp": "2025-12-07T14:37:05.597427+00:00", "meta": {"OBJECT_NAME": "COSMOS 2251 DEB", "OBJECT_ID": "1993-036LQ", "EPOCH": "2025-12-06T22:50:12.028704", "MEAN_MOTION": 14.65100452, "ECCENTRICITY": 0.00478338, "INCLINATION": 74.0111, "RA_OF_ASC_NODE": 317.7803, "ARG_OF_PERICENTER": 112.2824, "MEAN_ANOMALY": 248.3427, "EPHEMERIS_TYPE": 0, "CLASSIFICATION_TYPE": "U", "NORAD_CAT_ID": 34270, "ELEMENT_SET_NO": 999, "REV_AT_EPOCH": 89011, "BSTAR": 0.00054683503, "MEAN_MOTION_DOT": 2.956e-05, "MEAN_MOTION_DDOT": 0}, "tle": {"line1": "1 34270U 93036LQ  25340.95152811  .00002956  00000+0  54684-3 0  9994", "line2": "2 34270  74.0111 317.7803 0047833 112.2824 248.3427 14.65100452890113"}}, "geometry": {"type": "Point", "coordinates": [153.53654380351534, -45.59560708436417]}}, {"type": "Feature", "properties": {"norad_id": 34271, "name": "COSMOS 2251 DEB", "group": "cosmos-2251-debris", "lat": 65.56965552363125, "lon": -111.59650822832839, "alt_km": 665.7735628640066, "timestamp": "2025-12-07T14:37:05.597437+00:00", "meta": {"OBJECT_NAME": "COSMOS 2251 DEB", "OBJECT_ID": "1993-036LR", "EPOCH": "2025-12-06T22:02:42.686304", "MEAN_MOTION": 14.70568053, "ECCENTRICITY": 0.00194518, "INCLINATION": 74.0208, "RA_OF_ASC_NODE": 210.6355, "ARG_OF_PERICENTER": 265.6547, "MEAN_ANOMALY": 111.3304, "EPHEMERIS_TYPE": 0, "CLASSIFICATION_TYPE": "U", "NORAD_CAT_ID": 34271, "ELEMENT_SET_NO": 999, "REV_AT_EPOCH": 88149, "BSTAR": 0.0029625398, "MEAN_MOTION_DOT": 0.00018068, "MEAN_MOTION_DDOT": 0}, "tle": {"line1": "1 34271U 93036LR  25340.91854961  .00018068  00000+0  29625-2 0  9993", "line2": "2 34271  74.0208 210.6355 0019451 265.6547 111.3304 14.70568053881499"}}, "geometry": {"type": "Point", "coordinates": [-111.59650822832839, 65.56965552363125]}}, {"type": "Feature", "properties": {"norad_id": 34273, "name": "COSMOS 2251 DEB", "group": "cosmos-2251-debris", "lat": -73.53586593595004, "lon": -7.163145304380582, "alt_km": 689.0288846553576, "timestamp": "2025-12-07T14:37:05.597447+00:00", "meta": {"OBJECT_NAME": "COSMOS 2251 DEB", "OBJECT_ID": "1993-036LT", "EPOCH": "2025-12-06T14:27:23.028768", "MEAN_MOTION": 14.61131963, "ECCENTRICITY": 0.00143795, "INCLINATION": 74.0364, "RA_OF_ASC_NODE": 99.1611, "ARG_OF_PERICENTER": 224.7055, "MEAN_ANOMALY": 147.7339, "EPHEMERIS_TYPE": 0, "CLASSIFICATION_TYPE": "U", "NORAD_CAT_ID": 34273, "ELEMENT_SET_NO": 999, "REV_AT_EPOCH": 88532, "BSTAR": 0.0018900822, "MEAN_MOTION_DOT": 9.295e-05, "MEAN_MOTION_DDOT": 0}, "tle": {"line1": "1 34273U 93036LT  25340.60234987  .00009295  00000+0  18901-2 0  9998", "line2": "2 34273  74.0364  99.1611 0014379 224.7055 147.7339 14.61131963885326"}}, "geometry": {"type": "Point", "coordinates": [-7.163145304380582, -73.53586593595004]}}, {"type": "Feature", "properties": {"norad_id": 34274, "name": "COSMOS 2251 DEB", "group": "cosmos-2251-debris", "lat": -69.65633617984048, "lon": 27.774779890712903, "alt_km": 675.7491810088941, "timestamp": "2025-12-07T14:37:05.597457+00:00", "meta": {"OBJECT_NAME": "COSMOS 2251 DEB", "OBJECT_ID": "1993-036LU", "EPOCH": "2025-12-06T16:34:12.224928", "MEAN_MOTION": 14.64664469, "ECCENTRICITY": 0.00223902, "INCLINATION": 74.0054, "RA_OF_ASC_NODE": 80.2217, "ARG_OF_PERICENTER": 230.5017, "MEAN_ANOMALY": 250.031, "EPHEMERIS_TYPE": 0, "CLASSIFICATION_TYPE": "U", "NORAD_CAT_ID": 34274, "ELEMENT_SET_NO": 999, "REV_AT_EPOCH": 88587, "BSTAR": 0.0022449193, "MEAN_MOTION_DOT": 0.00011975, "MEAN_MOTION_DDOT": 0}, "tle": {"line1": "1 34274U 93036LU  25340.69041927  .00011975  00000+0  22449-2 0  9998", "line2": "2 34274  74.0054  80.2217 0022390 230.5017 250.0310 14.64664469885873"}}, "geometry": {"type": "Point", "coordinates": [27.774779890712903, -69.65633617984048]}}, {"type": "Feature", "properties": {"norad_id": 34276, "name": "COSMOS 2251 DEB", "group": "cosmos-2251-debris", "lat": -0.664434825418831, "lon": 94.88510068408723, "alt_km": 712.4483038441886, "timestamp": "2025-12-07T14:37:05.597467+00:00", "meta": {"OBJECT_NAME": "COSMOS 2251 DEB", "OBJECT_ID": "1993-036LW", "EPOCH": "2025-12-06T07:26:50.797824", "MEAN_MOTION": 14.5715603, "ECCENTRICITY": 0.00227561, "INCLINATION": 74.0235, "RA_OF_ASC_NODE": 97.5434, "ARG_OF_PERICENTER": 244.6936, "MEAN_ANOMALY": 144.144, "EPHEMERIS_TYPE": 0, "CLASSIFICATION_TYPE": "U", "NORAD_CAT_ID": 34276, "ELEMENT_SET_NO": 999, "REV_AT_EPOCH": 88499, "BSTAR": 0.0016234391, "MEAN_MOTION_DOT": 7.328e-05, "MEAN_MOTION_DDOT": 0}, "tle": {"line1": "1 34276U 93036LW  25340.31031016  .00007328  00000+0  16234-2 0  9999", "line2": "2 34276  74.0235  97.5434 0022756 244.6936 144.1440 14.57156030884991"}}, "geometry": {"type": "Point", "coordinates": [94.88510068408723, -0.664434825418831]}}, {"type": "Feature", "properties": {"norad_id": 34297, "name": "COSMOS 2251 DEB", "group": "cosmos-2251-debris", "lat": 29.71139061910929, "lon": -56.95225667475634, "alt_km": 757.055565720314, "timestamp": "2025-12-07T14:37:05.597477+00:00", "meta": {"OBJECT_NAME": "COSMOS 2251 DEB", "OBJECT_ID": "1993-036MT", "EPOCH": "2025-12-06T23:44:23.455104", "MEAN_MOTION": 14.36620688, "ECCENTRICITY": 0.00170315, "INCLINATION": 74.0482, "RA_OF_ASC_NODE": 294.7919, "ARG_OF_PERICENTER": 4.6325, "MEAN_ANOMALY": 61.5052, "EPHEMERIS_TYPE": 0, "CLASSIFICATION_TYPE": "U", "NORAD_CAT_ID": 34297, "ELEMENT_SET_NO": 999, "REV_AT_EPOCH": 87982, "BSTAR": 0.00025923498, "MEAN_MOTION_DOT": 7.38e-06, "MEAN_MOTION_DDOT": 0}, "tle": {"line1": "1 34297U 93036MT  25340.98916036  .00000738  00000+0  25923-3 0  9993", "line2": "2 34297  74.0482 294.7919 0017031   4.6325  61.5052 14.36620688879822"}}, "geometry": {"type": "Point", "coordinates": [-56.95225667475634, 29.71139061910929]}}, {"type": "Feature", "properties": {"norad_id": 34299, "name": "COSMOS 2251 DEB", "group": "cosmos-2251-debris", "lat": 9.278210124488645, "lon": -11.155615792780582, "alt_km": 365.38121368062275, "timestamp": "2025-12-07T14:37:05.597487+00:00", "meta": {"OBJECT_NAME": "COSMOS 2251 DEB", "OBJECT_ID": "1993-036MV", "EPOCH": "2025-12-06T00:10:51.485376", "MEAN_MOTION": 15.62377757, "ECCENTRICITY": 0.00238764, "INCLINATION": 73.9806, "RA_OF_ASC_NODE": 349.7489, "ARG_OF_PERICENTER": 59.1912, "MEAN_ANOMALY": 301.1652, "EPHEMERIS_TYPE": 0, "CLASSIFICATION_TYPE": "U", "NORAD_CAT_ID": 34299, "ELEMENT_SET_NO": 999, "REV_AT_EPOCH": 88905, "BSTAR": 0.0065916463, "MEAN_MOTION_DOT": 0.00638425, "MEAN_MOTION_DDOT": 0}, "tle": {"line1": "1 34299U 93036MV  25340.00754034  .00638425  00000+0  65916-2 0  9991", "line2": "2 34299  73.9806 349.7489 0023876  59.1912 301.1652 15.62377757889057"}}, "geometry": {"type": "Point", "coordinates": [-11.155615792780582, 9.278210124488645]}}, {"type": "Feature", "properties": {"norad_id": 34301, "name": "COSMOS 2251 DEB", "group": "cosmos-2251-debris", "lat": 3.396609978682196, "lon": -4.078968561550754, "alt_km": 614.0208179775773, "timestamp": "2025-12-07T14:37:05.597496+00:00", "meta": {"OBJECT_NAME": "COSMOS 2251 DEB", "OBJECT_ID": "1993-036MX", "EPOCH": "2025-12-06T20:04:58.579104", "MEAN_MOTION": 14.84128394, "ECCENTRICITY": 0.00120534, "INCLINATION": 74.0052, "RA_OF_ASC_NODE": 178.4299, "ARG_OF_PERICENTER": 237.2741, "MEAN_ANOMALY": 134.5276, "EPHEMERIS_TYPE": 0, "CLASSIFICATION_TYPE": "U", "NORAD_CAT_ID": 34301, "ELEMENT_SET_NO": 999, "REV_AT_EPOCH": 88313, "BSTAR": 0.0047535855, "MEAN_MOTION_DOT": 0.00039956, "MEAN_MOTION_DDOT": 0}, "tle": {"line1": "1 34301U 93036MX  25340.83678911  .00039956  00000+0  47536-2 0  9997", "line2": "2 34301  74.0052 178.4299 0012053 237.2741 134.5276 14.84128394883133"}}, "geometry": {"type": "Point", "coordinates": [-4.078968561550754, 3.396609978682196]}}, {"type": "Feature", "properties": {"norad_id": 34302, "name": "COSMOS 2251 DEB", "group": "cosmos-2251-debris", "lat": 15.941485816165354, "lon": 137.6149508465738, "alt_km": 711.1497767481351, "timestamp": "2025-12-07T14:37:05.597507+00:00", "meta": {"OBJECT_NAME": "COSMOS 2251 DEB", "OBJECT_ID": "1993-036MY", "EPOCH": "2025-12-06T20:53:22.884864", "MEAN_MOTION": 14.39297219, "ECCENTRICITY": 0.00784432, "INCLINATION": 74.178, "RA_OF_ASC_NODE": 134.3201, "ARG_OF_PERICENTER": 351.2511, "MEAN_ANOMALY": 159.098, "EPHEMERIS_TYPE": 0, "CLASSIFICATION_TYPE": "U", "NORAD_CAT_ID": 34302, "ELEMENT_SET_NO": 999, "REV_AT_EPOCH": 87636, "BSTAR": 0.0011115641, "MEAN_MOTION_DOT": 3.554e-05, "MEAN_MOTION_DDOT": 0}, "tle": {"line1": "1 34302U 93036MY  25340.87040376  .00003554  00000+0  11116-2 0  9990", "line2": "2 34302  74.1780 134.3201 0078443 351.2511 159.0980 14.39297219876368"}}, "geometry": {"type": "Point", "coordinates": [137.6149508465738, 15.941485816165354]}}]}